STARLINK-6220           
1 56482U 23064AL  26068.58055367 -.00000499  00000+0 -34061-4 0  9992
2 56482  69.9998 124.7071 0003282 269.8057  90.2726 14.98330554155729
LEMUR-2-MARACHE-FRAN    
1 63262U 25052BE  26068.70885648  .00008220  00000+0  68460-3 0  9999
2 63262  97.6985 323.5335 0002324  45.7689 314.3725 14.98898773 53859
